BEIDOU-2 IGSO-1 (C06)   
1 36828U 10036A   25319.51552984 -.00000044  00000+0  00000+0 0  9993
2 36828  54.2794 164.8948 0050831 215.9297 326.8706  1.00284412 55950
BEIDOU-2 G4 (C04)       
1 37210U 10057A   25327.58643311 -.00000091  00000+0  00000+0 0  9995
2 37210   3.1344  69.9918 0010310 185.4994 178.5023  1.00272825 55235
BEIDOU-2 IGSO-2 (C07)   
1 37256U 10068A   25323.81066801 -.00000218  00000+0  00000+0 0  9993
2 37256  47.9309 274.4330 0049685 216.9575 325.8733  1.00294299 54698
BEIDOU-2 IGSO-3 (C08)   
1 37384U 11013A   25326.68085278 -.00000183  00000+0  00000+0 0  9994
2 37384  62.1161  42.1103 0036102 185.6120 187.1081  1.00275894 53594
BEIDOU-2 IGSO-4 (C09)   
1 37763U 11038A   25326.53356068  .00000061  00000+0  00000+0 0  9998
2 37763  54.5690 167.5284 0148292 230.2166 309.7529  1.00286349 52573
BEIDOU-2 IGSO-5 (C10)   
1 37948U 11073A   25327.31854934 -.00000156  00000+0  00000+0 0  9990
2 37948  48.0578 274.0974 0108060 222.1952 132.8101  1.00251622 51063
BEIDOU-2 G5 (C05)       
1 38091U 12008A   25327.56816778  .00000077  00000+0  00000+0 0  9991
2 38091   3.0588  70.7681 0011536 225.2277  30.0591  1.00270511 50302
BEIDOU-2 M3 (C11)       
1 38250U 12018A   25326.99672022 -.00000054  00000+0  00000+0 0  9993
2 38250  55.9370 311.8214 0024665 272.6109  87.1016  1.86229954 92100
BEIDOU-2 M4 (C12)       
1 38251U 12018B   25326.39178782 -.00000058  00000+0  00000+0 0  9996
2 38251  55.8390 311.0724 0015776 275.1591  84.6545  1.86229652 92098
BEIDOU-2 M6 (C14)       
1 38775U 12050B   25326.63976760 -.00000034  00000+0  00000+0 0  9996
2 38775  56.3615  69.7346 0010655 348.1714  11.8019  1.86230919 89464
BEIDOU-2 G6 (C02)       
1 38953U 12059A   25327.45927565 -.00000156  00000+0  00000+0 0  9998
2 38953   3.8975  75.6921 0007110 295.5280 300.8467  1.00273671 47840
BEIDOU-3S M2S (C58)     
1 40748U 15037A   25326.05990611 -.00000061  00000+0  00000+0 0  9994
2 40748  55.0571 309.1739 0012669 265.5048  94.3419  1.86229239 70261
BEIDOU-3S M1S (C57)     
1 40749U 15037B   25326.82970226 -.00000055  00000+0  00000+0 0  9993
2 40749  55.0532 309.1371 0003237 354.0501   5.9388  1.86254032 70284
BEIDOU-3S IGSO-2S (C56) 
1 40938U 15053A   25326.79102582 -.00000135  00000+0  00000+0 0  9998
2 40938  49.5449 261.2438 0060841 189.3011 352.4152  1.00274979 37280
BEIDOU-2 IGSO-6 (C13)   
1 41434U 16021A   25326.72306389 -.00000143  00000+0  00000+0 0  9999
2 41434  59.9361  40.1017 0059177 230.5945 144.1709  1.00258932 35410
BEIDOU-2 G7 (C03)       
1 41586U 16037A   25325.66520297 -.00000332  00000+0  00000+0 0  9992
2 41586   1.7034  67.5384 0005264 332.6575  10.7439  1.00268968  4808
BEIDOU-3 M1 (C19)       
1 43001U 17069A   25325.86830624 -.00000041  00000+0  00000+0 0  9999
2 43001  56.5089  69.9242 0008352 303.4401  56.4743  1.86231249 54743
BEIDOU-3 M2 (C20)       
1 43002U 17069B   25326.88056025 -.00000031  00000+0  00000+0 0  9997
2 43002  56.5092  69.9265 0005886 334.7979  25.1727  1.86230825 54754
BEIDOU-3 M7 (C27)       
1 43107U 18003A   25327.16083519 -.00000055  00000+0  00000+0 0  9998
2 43107  54.5143 309.4960 0002437  74.0286 285.9921  1.86232532 53515
BEIDOU-3 M8 (C28)       
1 43108U 18003B   25326.56862536 -.00000059  00000+0  00000+0 0  9990
2 43108  54.5076 309.4994 0004914 271.1913  88.7450  1.86231034 53519
BEIDOU-3 M4 (C22)       
1 43207U 18018A   25327.01046552 -.00000030  00000+0  00000+0 0  9998
2 43207  56.4689  69.9577 0003944  20.8392 339.1767  1.86231173 52907
BEIDOU-3 M3 (C21)       
1 43208U 18018B   25327.07700262 -.00000029  00000+0  00000+0 0  9998
2 43208  56.4684  69.9596 0005855 318.0307  41.9247  1.86231326 52906
BEIDOU-3 M9 (C29)       
1 43245U 18029A   25326.75602588 -.00000056  00000+0  00000+0 0  9997
2 43245  54.3844 307.1653 0001864 270.6525  89.3172  1.86228388 52057
BEIDOU-3 M10 (C30)      
1 43246U 18029B   25326.69137707 -.00000056  00000+0  00000+0 0  9997
2 43246  54.3816 307.1944 0003792 357.3472   2.6416  1.86229154 52035
BEIDOU-2 IGSO-7 (C16)   
1 43539U 18057A   25327.46490900 -.00000049  00000+0  00000+0 0  9998
2 43539  55.1722 164.8409 0092098 235.1942 301.8923  1.00263130 27061
BEIDOU-3 M5 (C23)       
1 43581U 18062A   25325.30532837  .00000075  00000+0  00000+0 0  9996
2 43581  54.0890 189.3730 0002312 345.1103  14.9879  1.86228845 49763
BEIDOU-3 M6 (C24)       
1 43582U 18062B   25326.24242269  .00000071  00000+0  00000+0 0  9994
2 43582  54.0888 189.3304 0007641  44.0613 316.1022  1.86229899 49788
BEIDOU-3 M12 (C26)      
1 43602U 18067A   25327.25393720  .00000069  00000+0  00000+0 0  9990
2 43602  54.1831 188.0249 0009086  39.5062 320.6579  1.86227746 49287
BEIDOU-3 M11 (C25)      
1 43603U 18067B   25324.16664517  .00000080  00000+0  00000+0 0  9996
2 43603  54.1803 188.0936 0005502  34.2168 325.9245  1.86227269 49253
BEIDOU-3 M13 (C32)      
1 43622U 18072A   25326.27107983 -.00000038  00000+0  00000+0 0  9990
2 43622  56.4416  69.4983 0005184 299.3463  60.5988  1.86230964 48803
BEIDOU-3 M14 (C33)      
1 43623U 18072B   25327.21046413 -.00000029  00000+0  00000+0 0  9996
2 43623  56.4441  69.4611 0002760 342.8210  17.1713  1.86230966 48818
BEIDOU-3 M16 (C35)      
1 43647U 18078A   25326.29466836 -.00000059  00000+0  00000+0 0  9993
2 43647  54.2808 307.2361 0006761  17.6776 342.3362  1.86232396 48307
BEIDOU-3 M15 (C34)      
1 43648U 18078B   25326.96082274 -.00000055  00000+0  00000+0 0  9994
2 43648  54.2759 307.2138 0003384  16.0117 343.9905  1.86232274 48333
BEIDOU-3 G1 (C59)       
1 43683U 18085A   25327.47036904 -.00000257  00000+0  00000+0 0  9991
2 43683   2.5568 103.5833 0001844  48.3226 220.1913  1.00268236 25998
BEIDOU-3 M17 (C36)      
1 43706U 18093A   25327.40804882  .00000067  00000+0  00000+0 0  9995
2 43706  54.1726 189.2786 0006560 305.7528 248.0001  1.86228448 47701
BEIDOU-3 M18 (C37)      
1 43707U 18093B   25324.83261001  .00000077  00000+0  00000+0 0  9991
2 43707  54.1734 189.3579 0006538 348.6313  11.4598  1.86226757 47653
BEIDOU-3 IGSO-1 (C38)   
1 44204U 19023A   25323.59378135 -.00000226  00000+0  00000+0 0  9994
2 44204  58.4003  39.8168 0026966 221.2202 126.9723  1.00252177  5102
BEIDOU-2 G8 (C01)       
1 44231U 19027A   25327.47132238 -.00000226  00000+0  00000+0 0  9991
2 44231   1.6104  74.6606 0007718 257.7627  44.5092  1.00274406 24011
BEIDOU-3 IGSO-2 (C39)   
1 44337U 19035A   25326.93794828 -.00000052  00000+0  00000+0 0  9993
2 44337  55.2208 160.6762 0037417 202.0112 156.6213  1.00277615 23595
BEIDOU-3 M24 (C46)      
1 44542U 19061A   25327.05177770  .00000068  00000+0  00000+0 0  9991
2 44542  54.4002 189.6810 0009532  22.2342 337.9072  1.86229431 41959
BEIDOU-3 M23 (C45)      
1 44543U 19061B   25325.34758516  .00000075  00000+0  00000+0 0  9993
2 44543  54.3986 189.7068 0006028  18.6962 191.7037  1.86229672 41921
BEIDOU-3 IGSO-3 (C40)   
1 44709U 19073A   25324.29956875 -.00000206  00000+0  00000+0 0  9998
2 44709  55.1630 283.1590 0044538 191.5856 168.2409  1.00250097 22360
BEIDOU-3 M22 (C44)      
1 44793U 19078A   25326.89199218 -.00000055  00000+0  00000+0 0  9996
2 44793  54.1267 307.0828 0005419  22.0078 338.0067  1.86232096 40806
BEIDOU-3 M21 (C43)      
1 44794U 19078B   25327.02921203 -.00000055  00000+0  00000+0 0  9990
2 44794  54.0996 307.0434 0003706   8.6621 351.3358  1.86227813 40812
BEIDOU-3 M19 (C41)      
1 44864U 19090A   25326.18832486 -.00000038  00000+0  00000+0 0  9993
2 44864  56.3755  69.6437 0017166 284.2021  67.6051  1.86231562 40377
BEIDOU-3 M20 (C42)      
1 44865U 19090B   25321.34809936 -.00000065  00000+0  00000+0 0  9991
2 44865  56.3736  69.8376 0014104 297.7158 138.5807  1.86231498 40274
BEIDOU-3 G2 (C60)       
1 45344U 20017A   25327.45849565 -.00000122  00000+0  00000+0 0  9999
2 45344   2.9632  43.3814 0003922 266.6290 357.8080  1.00272474 21195
BEIDOU-3 G3 (C61)       
1 45807U 20040A   25326.67976825 -.00000333  00000+0  00000+0 0  9996
2 45807   1.9402  66.4078 0004927 313.1010  37.7040  1.00273572 19990
BEIDOU-3 G4 (C62)       
1 56564U 23066A   25327.58643308 -.00000090  00000+0  00000+0 0  9997
2 56564   0.8592 300.4415 0003721 226.1537 267.4082  1.00272423  9333
BEIDOU-3 M28 (C50)      
1 58654U 23207A   25323.88580427 -.00000060  00000+0  00000+0 0  9994
2 58654  55.5648  69.3753 0001539 256.9132 103.0559  1.86229828 12947
BEIDOU-3 M26 (C48)      
1 58655U 23207B   25325.83145420 -.00000043  00000+0  00000+0 0  9993
2 58655  55.5687  69.2957 0003096 245.2391 114.7233  1.86231348 12964
BEIDOU-3 M25 (C47)      
1 61186U 24168B   25327.23925267 -.00000054  00000+0  00000+0 0  9996
2 61186  54.6598 309.3964 0005585 292.3383  48.4542  1.86230276  7940
BEIDOU-3 M27 (C49)      
1 61187U 24168C   25326.52732064 -.00000059  00000+0  00000+0 0  9994
2 61187  54.6558 309.4047 0002240 324.8124  33.5984  1.86230426  5400
